SAUDISAT 5A             
1 43831U 18102A   26195.86250627  .00003138  00000+0  11629-3 0  9996
2 43831  97.3054 256.9124 0010464  44.7647 315.4436 15.28319042419909
SAUDISAT 5B             
1 43833U 18102C   26195.87682907  .00002923  00000+0  10769-3 0  9994
2 43833  97.3163 260.0463 0011246  46.1387 314.0780 15.28562266420020
GAOFEN-10R              
1 44622U 19066A   26195.88397420  .00000515  00000+0  70007-4 0  9992
2 44622  98.0508 149.6666 0006890  53.9225 306.2625 14.83056754366481
CARTOSAT-3              
1 44804U 19081A   26195.81988650  .00005582  00000+0  26801-3 0  9996
2 44804  97.4297 257.2400 0013120  60.2405 300.0133 15.19184019367661
GAOFEN-12 01            
1 44819U 19082A   26195.85814025  .00000161  00000+0  27670-4 0  9995
2 44819  97.8109 201.5082 0000987  54.0544 306.0760 14.80479368358183
CSG-1                   
1 44873U 19092A   26195.79819824  .00000150  00000+0  25442-4 0  9994
2 44873  97.8896  19.0018 0001501  90.0942 270.0443 14.82156542355567
NEMO-HD                 
1 46277U 20061F   26195.85251615  .00006648  00000+0  14223-3 0  9999
2 46277  97.1907 257.5337 0000977  94.8349 265.3012 15.45134201326256
SENTINEL-6A             
1 46984U 20086A   26195.80244009 -.00000043  00000+0  76517-4 0  9994
2 46984  66.0413  77.6963 0007789 269.8156  90.1967 12.80930157263862
CAS500-1                
1 47932U 21022A   26195.84101198  .00003598  00000+0  16955-3 0  9990
2 47932  97.3869  90.5301 0005176 172.1040 188.0278 15.20129082294965
GAOFEN-12 02            
1 48079U 21026A   26195.87217948  .00000151  00000+0  26789-4 0  9990
2 48079  97.9934 193.9413 0005820 133.0985 227.0714 14.80315904285851
PLEIADES NEO 3          
1 48268U 21034A   26195.87392248 -.00000717  00000+0 -84482-4 0  9990
2 48268  97.8946 270.2419 0001318  92.0388 268.0976 14.81665509281757
PLEIADES NEO 4          
1 49070U 21073E   26195.84015221  .00000919  00000+0  12336-3 0  9995
2 49070  97.8944 270.2048 0001355  93.0795 267.0573 14.81673033265462
LANDSAT 9               
1 49260U 21088A   26195.80183247  .00000165  00000+0  46671-4 0  9995
2 49260  98.2270 265.6433 0001143  88.0922 272.0407 14.57095360255024
CSG-2                   
1 51444U 22008A   26195.83192297  .00000167  00000+0  27544-4 0  9993
2 51444  97.8887  19.0294 0001554  85.5154 274.6237 14.82150677240687
GAOFEN-12 03            
1 52912U 22069A   26195.83923205  .00000216  00000+0  35213-4 0  9999
2 52912  97.8249  83.0088 0002417  73.2294 286.9183 14.80074173218708
SWOT                    
1 54754U 22173A   26195.78394314  .00000045  00000+0  32504-4 0  9998
2 54754  77.6109 358.0531 0000262  78.9161 281.2020 14.00172385183013
GAOFEN-12 04            
1 57654U 23123A   26195.85885951  .00000454  00000+0  67195-4 0  9994
2 57654  97.9102 113.4633 0003535  51.1810 308.9717 14.79774937156724
PARS 1                  
1 59065U 24039Q   26195.88720598  .00006819  00000+0  14014-3 0  9999
2 59065  97.4836 177.6934 0009819  27.9133 332.2641 15.46285785132922
RESURS-P 4              
1 59371U 24061A   26195.88826890  .00001660  00000+0  55709-4 0  9992
2 59371  97.2758 143.3087 0003223  89.9807 270.1804 15.32278921128005
LEGION 1                
1 59625U 24081A   26195.80327484  .00001778  00000+0  93783-4 0  9997
2 59625  97.5013 273.3673 0007700 271.1299  88.9052 15.16842537121727
LEGION 2                
1 59626U 24081B   26195.83365616  .00002117  00000+0  11105-3 0  9995
2 59626  97.5014 273.4943 0010181 234.6855 125.3426 15.16821470121734
ALOS-4 (DAICHI-4)       
1 60182U 24123A   26195.82036416  .00000319  00000+0  49556-4 0  9997
2 60182  97.9221 292.5995 0001587  98.4410 261.6981 14.79468894109965
LEGION 3                
1 60452U 24146A   26195.61154137  .00001649  00000+0  98870-4 0  9990
2 60452  45.0019 243.5172 0008271 330.9912  29.0506 15.15653679106183
LEGION 4                
1 60453U 24146B   26195.80902399  .00001933  00000+0  11348-3 0  9993
2 60453  45.0030 334.3256 0008946 111.3803 248.8031 15.15679876105065
SENTINEL-2C             
1 60989U 24157A   26195.44528460  .00000045  00000+0  33736-4 0  9991
2 60989  98.5685 269.8404 0000958 103.4162 256.7128 14.30815533 96882
IONOSFERA-M 1           
1 61735U 24199A   26195.83183343  .00000033  00000+0  34118-4 0  9999
2 61735  98.7135  68.7076 0002167  73.3942 286.7474 14.22759117131636
IONOSFERA-M 2           
1 61736U 24199B   26195.79573741  .00000026  00000+0  31028-4 0  9999
2 61736  98.7134  68.5822 0000489 123.5760 236.5465 14.22762446134752
PRSC-EO1                
1 62725U 25012A   26195.88334016  .00004100  00000+0  20710-3 0  9995
2 62725  97.4219 267.8002 0006741 147.3240 212.8412 15.17618560 82392
BIOMASS                 
1 63772U 25090A   26195.51366111  .00000272  00000+0  56507-4 0  9995
2 63772  98.0749  22.4296 0001445  96.9209 263.2160 14.67537026 64694
GOSAT-GW (IBUKI GW)     
1 64694U 25141A   26195.80364053  .00000002  00000+0  87458-5 0  9992
2 64694  98.0565 132.6720 0001431  85.0722 275.0646 14.67553832 55899
IONOSFERA-M 3           
1 64876U 25155A   26195.83816367 -.00000001  00000+0  19366-4 0  9994
2 64876  98.6039 157.0494 0002278 113.0369 247.1049 14.21490768 50330
