OBJECT_NAME,OBJECT_ID,EPOCH,MEAN_MOTION,ECCENTRICITY,INCLINATION,RA_OF_ASC_NODE,ARG_OF_PERICENTER,MEAN_ANOMALY,EPHEMERIS_TYPE,CLASSIFICATION_TYPE,NORAD_CAT_ID,ELEMENT_SET_NO,REV_AT_EPOCH,BSTAR,MEAN_MOTION_DOT,MEAN_MOTION_DDOT
SAUDISAT 5A,2018-102A,2026-07-14T20:42:00.541728,15.28319042,.0010464,97.3054,256.9124,44.7647,315.4436,0,U,43831,999,41990,.11629E-3,.3138E-4,0
SAUDISAT 5B,2018-102C,2026-07-14T21:02:38.031648,15.28562266,.0011246,97.3163,260.0463,46.1387,314.0780,0,U,43833,999,42002,.10769E-3,.2923E-4,0
GAOFEN-10R,2019-066A,2026-07-14T21:12:55.370880,14.83056754,.000689,98.0508,149.6666,53.9225,306.2625,0,U,44622,999,36648,.70007E-4,.515E-5,0
CARTOSAT-3,2019-081A,2026-07-14T19:40:38.193600,15.19184019,.001312,97.4297,257.2400,60.2405,300.0133,0,U,44804,999,36766,.26801E-3,.5582E-4,0
GAOFEN-12 01,2019-082A,2026-07-14T20:35:43.317600,14.80479368,.0000987,97.8109,201.5082,54.0544,306.0760,0,U,44819,999,35818,.2767E-4,.161E-5,0
CSG-1,2019-092A,2026-07-14T19:09:24.327936,14.82156542,.0001501,97.8896,19.0018,90.0942,270.0443,0,U,44873,999,35556,.25442E-4,.15E-5,0
NEMO-HD,2020-061F,2026-07-14T20:27:37.395360,15.45134201,.0000977,97.1907,257.5337,94.8349,265.3012,0,U,46277,999,32625,.14223E-3,.6648E-4,0
SENTINEL-6A,2020-086A,2026-07-14T19:15:30.823776,12.80930157,.0007789,66.0413,77.6963,269.8156,90.1967,0,U,46984,999,26386,.76517E-4,-.43E-6,0
CAS500-1,2021-022A,2026-07-14T20:11:03.435072,15.20129082,.0005176,97.3869,90.5301,172.1040,188.0278,0,U,47932,999,29496,.16955E-3,.3598E-4,0
GAOFEN-12 02,2021-026A,2026-07-14T20:55:56.307072,14.80315904,.000582,97.9934,193.9413,133.0985,227.0714,0,U,48079,999,28585,.26789E-4,.151E-5,0
PLEIADES NEO 3,2021-034A,2026-07-14T20:58:26.902272,14.81665509,.0001318,97.8946,270.2419,92.0388,268.0976,0,U,48268,999,28175,-.84482E-4,-.717E-5,0
PLEIADES NEO 4,2021-073E,2026-07-14T20:09:49.150944,14.81673033,.0001355,97.8944,270.2048,93.0795,267.0573,0,U,49070,999,26546,.12336E-3,.919E-5,0
LANDSAT 9,2021-088A,2026-07-14T19:14:38.325408,14.57095360,.0001143,98.2270,265.6433,88.0922,272.0407,0,U,49260,999,25502,.46671E-4,.165E-5,0
CSG-2,2022-008A,2026-07-14T19:57:58.144608,14.82150677,.0001554,97.8887,19.0294,85.5154,274.6237,0,U,51444,999,24068,.27544E-4,.167E-5,0
GAOFEN-12 03,2022-069A,2026-07-14T20:08:29.649120,14.80074173,.0002417,97.8249,83.0088,73.2294,286.9183,0,U,52912,999,21870,.35213E-4,.216E-5,0
SWOT,2022-173A,2026-07-14T18:48:52.687296,14.00172385,.0000262,77.6109,358.0531,78.9161,281.2020,0,U,54754,999,18301,.32504E-4,.45E-6,0
GAOFEN-12 04,2023-123A,2026-07-14T20:36:45.461664,14.79774937,.0003535,97.9102,113.4633,51.1810,308.9717,0,U,57654,999,15672,.67195E-4,.454E-5,0
PARS 1,2024-039Q,2026-07-14T21:17:34.596672,15.46285785,.0009819,97.4836,177.6934,27.9133,332.2641,0,U,59065,999,13292,.14014E-3,.6819E-4,0
RESURS-P 4,2024-061A,2026-07-14T21:19:06.432960,15.32278921,.0003223,97.2758,143.3087,89.9807,270.1804,0,U,59371,999,12800,.55709E-4,.166E-4,0
LEGION 1,2024-081A,2026-07-14T19:16:42.946176,15.16842537,.00077,97.5013,273.3673,271.1299,88.9052,0,U,59625,999,12172,.93783E-4,.1778E-4,0
LEGION 2,2024-081B,2026-07-14T20:00:27.892224,15.16821470,.0010181,97.5014,273.4943,234.6855,125.3426,0,U,59626,999,12173,.11105E-3,.2117E-4,0
ALOS-4 (DAICHI-4),2024-123A,2026-07-14T19:41:19.463424,14.79468894,.0001587,97.9221,292.5995,98.4410,261.6981,0,U,60182,999,10996,.49556E-4,.319E-5,0
LEGION 3,2024-146A,2026-07-14T14:40:37.174368,15.15653679,.0008271,45.0019,243.5172,330.9912,29.0506,0,U,60452,999,10618,.9887E-4,.1649E-4,0
LEGION 4,2024-146B,2026-07-14T19:24:59.672736,15.15679876,.0008946,45.0030,334.3256,111.3803,248.8031,0,U,60453,999,10506,.11348E-3,.1933E-4,0
SENTINEL-2C,2024-157A,2026-07-14T10:41:12.589440,14.30815533,.00009585,98.5685,269.8404,103.4162,256.7128,0,U,60989,999,9688,.33735765E-4,.45E-6,0
IONOSFERA-M 1,2024-199A,2026-07-14T19:57:50.408352,14.22759117,.0002167,98.7135,68.7076,73.3942,286.7474,0,U,61735,999,13163,.34118E-4,.33E-6,0
IONOSFERA-M 2,2024-199B,2026-07-14T19:05:51.712224,14.22762446,.0000489,98.7134,68.5822,123.5760,236.5465,0,U,61736,999,13475,.31028E-4,.26E-6,0
PRSC-EO1,2025-012A,2026-07-14T21:12:00.589824,15.17618560,.0006741,97.4219,267.8002,147.3240,212.8412,0,U,62725,999,8239,.2071E-3,.41E-4,0
BIOMASS,2025-090A,2026-07-14T12:19:40.319904,14.67537026,.00014457,98.0749,22.4296,96.9209,263.2160,0,U,63772,999,6469,.56506881E-4,.272E-5,0
GOSAT-GW (IBUKI GW),2025-141A,2026-07-14T19:17:14.541792,14.67553832,.0001431,98.0565,132.6720,85.0722,275.0646,0,U,64694,999,5589,.87458E-5,.2E-7,0
IONOSFERA-M 3,2025-155A,2026-07-14T20:06:57.341088,14.21490768,.0002278,98.6039,157.0494,113.0369,247.1049,0,U,64876,999,5033,.19366E-4,-.1E-7,0
